FLOCK 4G-23             
1 62647U 25009AQ  26068.71663397  .00012440  00000+0  46816-3 0  9993
2 62647  97.3979 150.9478 0000905   7.2707 352.8545 15.27262579 63728
STARLINK-32947          
1 63121U 25039T   26068.17335632  .00035426  00000+0  12927-2 0  9996
2 63121  43.0049  15.1957 0001372 260.7076  99.3620 15.27528698 57996
